[{"OBJECT_NAME":"STARLINK-4417","OBJECT_ID":"2022-084M","EPOCH":"2026-03-09T17:53:39.725952","MEAN_MOTION":15.05649534,"ECCENTRICITY":9.057e-5,"INCLINATION":97.6031,"RA_OF_ASC_NODE":131.2277,"ARG_OF_PERICENTER":118.3866,"MEAN_ANOMALY":241.7452,"EPHEMERIS_TYPE":0,"CLASSIFICATION_TYPE":"U","NORAD_CAT_ID":53200,"ELEMENT_SET_NO":999,"REV_AT_EPOCH":20004,"BSTAR":-6.874592e-6,"MEAN_MOTION_DOT":-1.6e-6,"MEAN_MOTION_DDOT":0},{"OBJECT_NAME":"OBJECT B","OBJECT_ID":"2025-226B","EPOCH":"2026-03-09T23:02:31.139232","MEAN_MOTION":15.09715314,"ECCENTRICITY":0.00204156,"INCLINATION":97.6443,"RA_OF_ASC_NODE":147.8366,"ARG_OF_PERICENTER":114.3969,"MEAN_ANOMALY":245.9393,"EPHEMERIS_TYPE":0,"CLASSIFICATION_TYPE":"U","NORAD_CAT_ID":65939,"ELEMENT_SET_NO":999,"REV_AT_EPOCH":2260,"BSTAR":0.00038297064,"MEAN_MOTION_DOT":6.14e-5,"MEAN_MOTION_DDOT":0}]
